start=new Date('2022-06-15T00:00:00.000Z').valueOf();
sats=[{"REV_AT_EPOCH":"130","MEAN_MOTION_DOT":"-0.00021942","EPHEMERIS_TYPE":"0","FILE":"3496199","SITE":"AFETR","ARG_OF_PERICENTER":"36.2996","TLE_LINE1":"1 52500U 22049BB  22165.91667824 -.00021942  00000-0 -15251-3 0  9995","GP_ID":"206172921","MEAN_MOTION_DDOT":"0.0000000000000","RCS_SIZE":"LARGE","PERIAPSIS":"348.569","ECCENTRICITY":"0.00018980","CLASSIFICATION_TYPE":"U","LAUNCH_DATE":"2022-05-06","CENTER_NAME":"EARTH","BSTAR":"-0.00015251000000","OBJECT_ID":"2022-049BB","DECAY_DATE":null,"PERIOD":"91.535","SEMIMAJOR_AXIS":"6727.981","REF_FRAME":"TEME","MEAN_ELEMENT_THEORY":"SGP4","ELEMENT_SET_NO":"999","MEAN_MOTION":"15.73169842","MEAN_ANOMALY":"350.8690","NORAD_CAT_ID":"52500","TIME_SYSTEM":"UTC","TLE_LINE2":"2 52500  53.2180  70.7324 0001898  36.2996 350.8690 15.73169842  1308","EPOCH":"2022-06-14T22:00:00.999936","RA_OF_ASC_NODE":"70.7324","APOAPSIS":"351.123","OBJECT_NAME":"STARLINK-3866","OBJECT_TYPE":"PAYLOAD","COUNTRY_CODE":"US","INCLINATION":"53.2180"},{"SEMIMAJOR_AXIS":"6728.053","REF_FRAME":"TEME","PERIOD":"91.536","OBJECT_ID":"2022-049BC","DECAY_DATE":null,"NORAD_CAT_ID":"52501","TLE_LINE2":"2 52501  53.2187  70.7381 0002012  42.2475 343.0371 15.73144509  6394","TIME_SYSTEM":"UTC","MEAN_ANOMALY":"343.0371","MEAN_MOTION":"15.73144509","ELEMENT_SET_NO":"999","MEAN_ELEMENT_THEORY":"SGP4","OBJECT_NAME":"STARLINK-3907","RA_OF_ASC_NODE":"70.7381","APOAPSIS":"351.272","EPOCH":"2022-06-14T22:00:00.999936","INCLINATION":"53.2187","OBJECT_TYPE":"PAYLOAD","COUNTRY_CODE":"US","FILE":"3496172","EPHEMERIS_TYPE":"0","MEAN_MOTION_DOT":"0.00012901","REV_AT_EPOCH":"639","MEAN_MOTION_DDOT":"0.0000000000000","ARG_OF_PERICENTER":"42.2475","TLE_LINE1":"1 52501U 22049BC  22165.91667824  .00012901  00000-0  96422-4 0  9999","GP_ID":"206147434","SITE":"AFETR","ECCENTRICITY":"0.00020120","PERIAPSIS":"348.565","RCS_SIZE":"LARGE","BSTAR":"0.00009642200000","CLASSIFICATION_TYPE":"U","LAUNCH_DATE":"2022-05-06","CENTER_NAME":"EARTH"},{"OBJECT_TYPE":"PAYLOAD","COUNTRY_CODE":"US","INCLINATION":"53.2174","EPOCH":"2022-06-14T22:00:00.999936","RA_OF_ASC_NODE":"70.7280","APOAPSIS":"350.773","OBJECT_NAME":"STARLINK-3912","MEAN_ELEMENT_THEORY":"SGP4","ELEMENT_SET_NO":"999","MEAN_ANOMALY":"338.6905","MEAN_MOTION":"15.73182841","NORAD_CAT_ID":"52502","TLE_LINE2":"2 52502  53.2174  70.7280 0001432  49.7733 338.6905 15.73182841  6397","TIME_SYSTEM":"UTC","OBJECT_ID":"2022-049BD","DECAY_DATE":null,"PERIOD":"91.534","SEMIMAJOR_AXIS":"6727.944","REF_FRAME":"TEME","CLASSIFICATION_TYPE":"U","LAUNCH_DATE":"2022-05-06","CENTER_NAME":"EARTH","BSTAR":"-0.00030483000000","RCS_SIZE":"MEDIUM","PERIAPSIS":"348.846","ECCENTRICITY":"0.00014320","SITE":"AFETR","TLE_LINE1":"1 52502U 22049BD  22165.91667824 -.00043151  00000-0 -30483-3 0  9997","ARG_OF_PERICENTER":"49.7733","GP_ID":"206147451","MEAN_MOTION_DDOT":"0.0000000000000","MEAN_MOTION_DOT":"-0.00043151","REV_AT_EPOCH":"639","EPHEMERIS_TYPE":"0","FILE":"3496179"},{"BSTAR":"0.00011788000000","CLASSIFICATION_TYPE":"U","LAUNCH_DATE":"2022-05-06","CENTER_NAME":"EARTH","ECCENTRICITY":"0.00016790","RCS_SIZE":"MEDIUM","PERIAPSIS":"348.736","GP_ID":"206172552","TLE_LINE1":"1 52503U 22049BE  22165.91667824  .00015929  00000-0  11788-3 0  9995","ARG_OF_PERICENTER":"38.8302","MEAN_MOTION_DDOT":"0.0000000000000","SITE":"AFETR","FILE":"3496199","EPHEMERIS_TYPE":"0","MEAN_MOTION_DOT":"0.00015929","REV_AT_EPOCH":"130","INCLINATION":"53.2174","OBJECT_TYPE":"PAYLOAD","COUNTRY_CODE":"US","RA_OF_ASC_NODE":"70.7291","APOAPSIS":"350.995","OBJECT_NAME":"STARLINK-3861","EPOCH":"2022-06-14T22:00:00.999936","MEAN_MOTION":"15.73163053","MEAN_ANOMALY":"348.9915","NORAD_CAT_ID":"52503","TIME_SYSTEM":"UTC","TLE_LINE2":"2 52503  53.2174  70.7291 0001679  38.8302 348.9915 15.73163053  1309","MEAN_ELEMENT_THEORY":"SGP4","ELEMENT_SET_NO":"999","PERIOD":"91.535","SEMIMAJOR_AXIS":"6728.001","REF_FRAME":"TEME","OBJECT_ID":"2022-049BE","DECAY_DATE":null},{"TIME_SYSTEM":"UTC","TLE_LINE2":"2 52533  53.2175 135.8900 0001294  52.5854 352.3513 15.50767134  5561","NORAD_CAT_ID":"52533","MEAN_MOTION":"15.50767134","MEAN_ANOMALY":"352.3513","ELEMENT_SET_NO":"999","MEAN_ELEMENT_THEORY":"SGP4","REF_FRAME":"TEME","SEMIMAJOR_AXIS":"6792.622","PERIOD":"92.857","DECAY_DATE":null,"OBJECT_ID":"2022-051A","INCLINATION":"53.2175","COUNTRY_CODE":"US","OBJECT_TYPE":"PAYLOAD","OBJECT_NAME":"STARLINK-3951","APOAPSIS":"415.366","RA_OF_ASC_NODE":"135.8900","EPOCH":"2022-06-14T22:00:00.999936","MEAN_MOTION_DDOT":"0.0000000000000","GP_ID":"206147565","TLE_LINE1":"1 52533U 22051A   22165.91667824 -.00720354  00000-0 -13280-1 0  9995","ARG_OF_PERICENTER":"52.5854","SITE":"AFWTR","FILE":"3496185","MEAN_MOTION_DOT":"-0.00720354","EPHEMERIS_TYPE":"0","REV_AT_EPOCH":"556","BSTAR":"-0.01328000000000","CENTER_NAME":"EARTH","LAUNCH_DATE":"2022-05-13","CLASSIFICATION_TYPE":"U","ECCENTRICITY":"0.00012940","PERIAPSIS":"413.608","RCS_SIZE":"LARGE"},{"OBJECT_TYPE":"PAYLOAD","COUNTRY_CODE":"US","INCLINATION":"53.2175","EPOCH":"2022-06-14T22:00:00.999936","RA_OF_ASC_NODE":"135.8691","APOAPSIS":"415.349","OBJECT_NAME":"STARLINK-3952","MEAN_ELEMENT_THEORY":"SGP4","ELEMENT_SET_NO":"999","MEAN_ANOMALY":"344.3026","MEAN_MOTION":"15.50757969","NORAD_CAT_ID":"52534","TLE_LINE2":"2 52534  53.2175 135.8691 0001229  58.9672 344.3026 15.50757969  5560","TIME_SYSTEM":"UTC","OBJECT_ID":"2022-051B","DECAY_DATE":null,"PERIOD":"92.858","SEMIMAJOR_AXIS":"6792.649","REF_FRAME":"TEME","CLASSIFICATION_TYPE":"U","LAUNCH_DATE":"2022-05-13","CENTER_NAME":"EARTH","BSTAR":"-0.01328800000000","RCS_SIZE":"LARGE","PERIAPSIS":"413.679","ECCENTRICITY":"0.00012290","SITE":"AFWTR","TLE_LINE1":"1 52534U 22051B   22165.91667824 -.00720527  00000-0 -13288-1 0  9996","GP_ID":"206147472","ARG_OF_PERICENTER":"58.9672","MEAN_MOTION_DDOT":"0.0000000000000","REV_AT_EPOCH":"556","MEAN_MOTION_DOT":"-0.00720527","EPHEMERIS_TYPE":"0","FILE":"3496185"},{"DECAY_DATE":null,"OBJECT_ID":"2022-051C","PERIOD":"92.858","REF_FRAME":"TEME","SEMIMAJOR_AXIS":"6792.635","MEAN_ELEMENT_THEORY":"SGP4","ELEMENT_SET_NO":"999","MEAN_ANOMALY":"340.1536","MEAN_MOTION":"15.50762590","TIME_SYSTEM":"UTC","TLE_LINE2":"2 52535  53.2175 135.8813 0001185  63.9497 340.1536 15.50762590  5565","NORAD_CAT_ID":"52535","EPOCH":"2022-06-14T22:00:00.999936","APOAPSIS":"415.305","RA_OF_ASC_NODE":"135.8813","OBJECT_NAME":"STARLINK-3958","COUNTRY_CODE":"US","OBJECT_TYPE":"PAYLOAD","INCLINATION":"53.2175","MEAN_MOTION_DOT":"-0.00720480","EPHEMERIS_TYPE":"0","REV_AT_EPOCH":"556","FILE":"3496185","SITE":"AFWTR","GP_ID":"206147470","TLE_LINE1":"1 52535U 22051C   22165.91667824 -.00720480  00000-0 -13285-1 0  9992","ARG_OF_PERICENTER":"63.9497","MEAN_MOTION_DDOT":"0.0000000000000","RCS_SIZE":"LARGE","PERIAPSIS":"413.695","ECCENTRICITY":"0.00011850","CENTER_NAME":"EARTH","LAUNCH_DATE":"2022-05-13","CLASSIFICATION_TYPE":"U","BSTAR":"-0.01328500000000"},{"ECCENTRICITY":"0.00011950","RCS_SIZE":"LARGE","PERIAPSIS":"413.662","BSTAR":"-0.01327800000000","LAUNCH_DATE":"2022-05-13","CENTER_NAME":"EARTH","CLASSIFICATION_TYPE":"U","FILE":"3496182","MEAN_MOTION_DOT":"-0.00720347","EPHEMERIS_TYPE":"0","REV_AT_EPOCH":"556","GP_ID":"206147603","TLE_LINE1":"1 52536U 22051D   22165.91667824 -.00720347  00000-0 -13278-1 0  9997","ARG_OF_PERICENTER":"63.2806","MEAN_MOTION_DDOT":"0.0000000000000","SITE":"AFWTR","APOAPSIS":"415.285","RA_OF_ASC_NODE":"135.8921","OBJECT_NAME":"STARLINK-3964","EPOCH":"2022-06-14T22:00:00.999936","INCLINATION":"53.2175","COUNTRY_CODE":"US","OBJECT_TYPE":"PAYLOAD","PERIOD":"92.857","REF_FRAME":"TEME","SEMIMAJOR_AXIS":"6792.609","DECAY_DATE":null,"OBJECT_ID":"2022-051D","MEAN_ANOMALY":"342.4896","MEAN_MOTION":"15.50771679","TIME_SYSTEM":"UTC","TLE_LINE2":"2 52536  53.2175 135.8921 0001195  63.2806 342.4896 15.50771679  5566","NORAD_CAT_ID":"52536","MEAN_ELEMENT_THEORY":"SGP4","ELEMENT_SET_NO":"999"},{"CENTER_NAME":"EARTH","LAUNCH_DATE":"2022-05-13","CLASSIFICATION_TYPE":"U","BSTAR":"-0.01327200000000","RCS_SIZE":"LARGE","PERIAPSIS":"413.600","ECCENTRICITY":"0.00012660","SITE":"AFWTR","GP_ID":"206147468","TLE_LINE1":"1 52537U 22051E   22165.91667824 -.00720165  00000-0 -13272-1 0  9990","ARG_OF_PERICENTER":"54.8264","MEAN_MOTION_DDOT":"0.0000000000000","REV_AT_EPOCH":"556","MEAN_MOTION_DOT":"-0.00720165","EPHEMERIS_TYPE":"0","FILE":"3496185","COUNTRY_CODE":"US","OBJECT_TYPE":"PAYLOAD","INCLINATION":"53.2175","EPOCH":"2022-06-14T22:00:00.999936","APOAPSIS":"415.320","RA_OF_ASC_NODE":"135.9043","OBJECT_NAME":"STARLINK-3897","MEAN_ELEMENT_THEORY":"SGP4","ELEMENT_SET_NO":"999","MEAN_ANOMALY":"351.7771","MEAN_MOTION":"15.50776247","TIME_SYSTEM":"UTC","TLE_LINE2":"2 52537  53.2175 135.9043 0001266  54.8264 351.7771 15.50776247  5567","NORAD_CAT_ID":"52537","DECAY_DATE":null,"OBJECT_ID":"2022-051E","PERIOD":"92.857","REF_FRAME":"TEME","SEMIMAJOR_AXIS":"6792.595"},{"SITE":"AFWTR","ARG_OF_PERICENTER":"67.6244","TLE_LINE1":"1 52538U 22051F   22165.91667824 -.00720017  00000-0 -13265-1 0  9999","GP_ID":"206147471","MEAN_MOTION_DDOT":"0.0000000000000","REV_AT_EPOCH":"556","MEAN_MOTION_DOT":"-0.00720017","EPHEMERIS_TYPE":"0","FILE":"3496185","CLASSIFICATION_TYPE":"U","CENTER_NAME":"EARTH","LAUNCH_DATE":"2022-05-13","BSTAR":"-0.01326500000000","RCS_SIZE":"LARGE","PERIAPSIS":"413.648","ECCENTRICITY":"0.00011570","MEAN_ELEMENT_THEORY":"SGP4","ELEMENT_SET_NO":"999","MEAN_MOTION":"15.50785481","MEAN_ANOMALY":"340.6455","NORAD_CAT_ID":"52538","TLE_LINE2":"2 52538  53.2175 135.9290 0001157  67.6244 340.6455 15.50785481  5567","TIME_SYSTEM":"UTC","OBJECT_ID":"2022-051F","DECAY_DATE":null,"PERIOD":"92.856","SEMIMAJOR_AXIS":"6792.568","REF_FRAME":"TEME","OBJECT_TYPE":"PAYLOAD","COUNTRY_CODE":"US","INCLINATION":"53.2175","EPOCH":"2022-06-14T22:00:00.999936","RA_OF_ASC_NODE":"135.9290","APOAPSIS":"415.219","OBJECT_NAME":"STARLINK-3933"}];
